1 45396U 20019AN  22365.18402857  .00004276  00000-0  30584-3 0  9994
2 45396  53.0560 334.2878 0001995  46.7259 313.3896 15.06395958154206
1 45396U 20019AN  22365.18402857  .00004276  00000-0  30584-3 0  9994
2 45396  53.0560 334.2878 0001995  46.7259 313.3896 15.06395958154206
1 45396U 20019AN  22365.64845687  .00004064  00000-0  29162-3 0  9992
2 45396  53.0560 332.2031 0002024  46.8402 313.2756 15.06398484154278
1 45396U 20019AN  23001.17923161  .00002925  00000-0  21521-3 0  9997
2 45396  53.0560 329.8191 0002088  51.5920 308.5256 15.06402133154353
1 45396U 20019AN  23001.90906176 -.00001466  00000-0 -79503-4 0  9990
2 45396  53.0565 326.5439 0002306  50.0498 310.0693 15.06396683154461
1 45396U 20019AN  23002.04175562 -.00001596  00000-0 -88255-4 0  9991
2 45396  53.0560 325.9479 0002083  52.9725 307.1454 15.06395450154484
1 45396U 20019AN  23002.30713782 -.00001088  00000-0 -54147-4 0  9991
2 45396  53.0561 324.7560 0001980  50.2503 309.8661 15.06401878154529
1 45396U 20019AN  23002.30713782 -.00001088  00000-0 -54147-4 0  9991
2 45396  53.0561 324.7560 0001980  50.2503 309.8661 15.06401878154529
1 45396U 20019AN  23003.56772314  .00000121  00000-0  27062-4 0  9997
2 45396  53.0567 319.0979 0001978  48.6664 311.4495 15.06404328154710
1 45396U 20019AN  23003.56772314  .00000121  00000-0  27062-4 0  9997
2 45396  53.0567 319.0979 0001978  48.6664 311.4495 15.06404328154710
1 45396U 20019AN  23004.09850537  .00001351  00000-0  10960-3 0  9994
2 45396  53.0565 316.7154 0001837  48.9267 311.1881 15.06392050154795
1 45396U 20019AN  23004.56294271 -.00000805  00000-0 -35165-4 0  9993
2 45396  53.0564 314.6300 0001796  50.5369 309.5779 15.06385985154864
1 45396U 20019AN  23004.56294271 -.00000805  00000-0 -35165-4 0  9993
2 45396  53.0564 314.6300 0001796  50.5369 309.5779 15.06385985154864
1 45396U 20019AN  23005.29274564  .00001132  00000-0  94911-4 0  9993
2 45396  53.0566 311.3538 0001890  56.2250 303.8919 15.06403819154972
1 45396U 20019AN  23005.55814319 -.00000637  00000-0 -23846-4 0  9990
2 45396  53.0565 310.1615 0001818  54.2415 305.8743 15.06392283155010
1 45396U 20019AN  23005.55814319 -.00000637  00000-0 -23846-4 0  9990
2 45396  53.0565 310.1615 0001818  54.2415 305.8743 15.06392283155010
1 45396U 20019AN  23006.22160856 -.00000358  00000-0 -51363-5 0  9991
2 45396  53.0570 307.1832 0001756  68.3347 291.7829 15.06400842155114
1 45396U 20019AN  23006.55334833  .00000700  00000-0  65903-4 0  9998
2 45396  53.0564 305.6949 0001747  64.1005 296.0164 15.06391296155161
1 45396U 20019AN  23006.88508303  .00001192  00000-0  98913-4 0  9992
2 45396  53.0557 304.2061 0001791  64.0353 296.0820 15.06392826155212
1 45396U 20019AN  23007.08411872  .00000994  00000-0  85622-4 0  9991
2 45396  53.0558 303.3126 0001795  61.9736 298.1435 15.06402394155240
1 45396U 20019AN  23007.08411872  .00000994  00000-0  85622-4 0  9991
2 45396  53.0558 303.3126 0001795  61.9736 298.1435 15.06402394155240
1 45396U 20019AN  23007.81394272  .00001243  00000-0  10236-3 0  9992
2 45396  53.0559 300.0367 0001575  69.4077 290.7081 15.06387998155358
1 45396U 20019AN  23007.81394272  .00001243  00000-0  10236-3 0  9992
2 45396  53.0559 300.0367 0001575  69.4077 290.7081 15.06387998155358
1 45396U 20019AN  23008.21201392  .00001243  00000-0  10234-3 0  9995
2 45396  53.0555 298.2481 0001623  80.4439 279.6733 15.06404333155418
1 45396U 20019AN  23009.20722092  .00000631  00000-0  61239-4 0  9992
2 45396  53.0560 293.7804 0001869  87.1067 273.0136 15.06399224155569
1 45396U 20019AN  23009.47261228 -.00000986  00000-0 -47316-4 0  9995
2 45396  53.0556 292.5890 0001852  86.5620 273.5581 15.06396602155607
1 45396U 20019AN  23010.13608471 -.00000705  00000-0 -28404-4 0  9991
2 45396  53.0551 289.6106 0001828  90.3926 269.7272 15.06392299155707
1 45396U 20019AN  23010.46781589  .00000449  00000-0  49080-4 0  9995
2 45396  53.0568 288.1224 0001778  91.1165 269.0028 15.06394974155757
1 45396U 20019AN  23011.06492299  .00003671  00000-0  26514-3 0  9995
2 45396  53.0567 285.4402 0001868  84.2262 275.8940 15.06411546155848
1 45396U 20019AN  23011.46300109  .00003331  00000-0  24233-3 0  9996
2 45396  53.0565 283.6533 0001796  90.1001 270.0194 15.06411971155905
1 45396U 20019AN  23011.79474845  .00001614  00000-0  12723-3 0  9994
2 45396  53.0563 282.1657 0001746  92.4878 267.6311 15.06395434155959
1 45396U 20019AN  23011.79474845  .00001614  00000-0  12723-3 0  9994
2 45396  53.0563 282.1657 0001746  92.4878 267.6311 15.06395434155959
1 45396U 20019AN  23012.12647436  .00002184  00000-0  16543-3 0  9997
2 45396  53.0559 280.6758 0001498  93.7341 266.3819 15.06407831156003
1 45396U 20019AN  23012.45821462  .00000768  00000-0  70446-4 0  9995
2 45396  53.0558 279.1870 0001576  88.6272 271.4898 15.06399968156053
1 45396U 20019AN  23012.92265383  .00002532  00000-0  18889-3 0  9994
2 45396  53.0560 277.1003 0001563  94.3806 265.7362 15.06380852156127
1 45396U 20019AN  23012.98899896 -.00000981  00000-0 -46956-4 0  9997
2 45396  53.0561 276.8048 0001316  92.1588 267.9552 15.06390669156135
1 45396U 20019AN  23013.45341947 -.00001756  00000-0 -99003-4 0  9991
2 45396  53.0548 274.7186 0001327  95.0148 265.0993 15.06401750156206
1 45396U 20019AN  23013.45341947 -.00001756  00000-0 -99003-4 0  9991
2 45396  53.0548 274.7186 0001327  95.0148 265.0993 15.06401750156206
1 45396U 20019AN  23013.71881081  .00000488  00000-0  51679-4 0  9994
2 45396  53.0544 273.5278 0001383  95.8925 264.2222 15.06390743156243
1 45396U 20019AN  23013.71881081  .00000488  00000-0  51679-4 0  9994
2 45396  53.0544 273.5278 0001383  95.8925 264.2222 15.06390743156243
1 45396U 20019AN  23014.11688799  .00001364  00000-0  11043-3 0  9994
2 45396  53.0540 271.7405 0001624  96.0235 264.0939 15.06400033156300
1 45396U 20019AN  23015.11209437  .00002823  00000-0  20834-3 0  9992
2 45396  53.0532 267.2721 0001574  98.2343 261.8825 15.06395640156452
1 45396U 20019AN  23015.11209437  .00002823  00000-0  20834-3 0  9992
2 45396  53.0532 267.2721 0001574  98.2343 261.8825 15.06395640156452
1 45396U 20019AN  23015.84189917 -.00005314  00000-0 -33797-3 0  9994
2 45396  53.0540 263.9954 0001734  92.1058 268.0130 15.06413168156562
1 45396U 20019AN  23015.90825103  .00000886  00000-0  78347-4 0  9993
2 45396  53.0543 263.6977 0001549  99.1262 260.9902 15.06401792156574
1 45396U 20019AN  23016.37267765  .00001260  00000-0  10346-3 0  9990
2 45396  53.0547 261.6125 0001219  85.2925 274.8203 15.06404236156649
1 45396U 20019AN  23016.37267765  .00001260  00000-0  10346-3 0  9990
2 45396  53.0547 261.6125 0001219  85.2925 274.8203 15.06404236156649
1 45396U 20019AN  23016.77077397 -.00003626  00000-0 -22481-3 0  9997
2 45396  53.0543 259.8261 0001292  88.6783 271.4354 15.06378757156700
1 45396U 20019AN  23016.77077397 -.00003626  00000-0 -22481-3 0  9997
2 45396  53.0543 259.8261 0001292  88.6783 271.4354 15.06378757156700
1 45396U 20019AN  23017.03615987 -.00001801  00000-0 -10210-3 0  9990
2 45396  53.0538 258.6364 0001172  86.7872 273.3251 15.06386017156749
1 45396U 20019AN  23017.63328221  .00001210  00000-0  10013-3 0  9991
2 45396  53.0540 255.9557 0000918  89.9417 270.1677 15.06391630156837
1 45396U 20019AN  23017.89866785  .00002574  00000-0  19160-3 0  9997
2 45396  53.0538 254.7645 0001006  82.0966 278.0137 15.06398322156878
1 45396U 20019AN  23017.96501430  .00003883  00000-0  27941-3 0  9998
2 45396  53.0538 254.4667 0001001  81.5537 278.5566 15.06401183156884
1 45396U 20019AN  23018.36309800  .00010838  00000-0  74519-3 0  9991
2 45396  53.0536 252.6796 0001035  76.1371 283.9733 15.06408015156942
1 45396U 20019AN  23018.89386963  .00007922  00000-0  54993-3 0  9998
2 45396  53.0533 250.2968 0001066  76.9285 283.1823 15.06411460157020
1 45396U 20019AN  23019.02656101  .00010443  00000-0  71853-3 0  9994
2 45396  53.0533 249.7009 0001086  76.5809 283.5301 15.06418761157047
1 45396U 20019AN  23019.42464343  .00001472  00000-0  11765-3 0  9991
2 45396  53.0524 247.9138 0001017  93.4769 266.6337 15.06400008157100
1 45396U 20019AN  23019.42464343  .00001472  00000-0  11765-3 0  9991
2 45396  53.0524 247.9138 0001017  93.4769 266.6337 15.06400008157100
1 45396U 20019AN  23019.88907560  .00000259  00000-0  36286-4 0  9992
2 45396  53.0530 245.8295 0001045  92.4375 267.6734 15.06392880157178
1 45396U 20019AN  23020.35350535  .00003693  00000-0  26673-3 0  9993
2 45396  53.0530 243.7455 0001081  85.7839 274.3273 15.06397411157249
1 45396U 20019AN  23021.01697323  .00010470  00000-0  72055-3 0  9992
2 45396  53.0528 240.7662 0001137  86.7846 273.3273 15.06408630157340
1 45396U 20019AN  23021.61409501  .00004746  00000-0  33728-3 0  9990
2 45396  53.0527 238.0852 0001110  85.9699 274.1417 15.06404047157435
1 45396U 20019AN  23022.60929643  .00001647  00000-0  12945-3 0  9999
2 45396  53.0525 233.6160 0001154  97.0915 263.0205 15.06401292157586
1 45396U 20019AN  23023.80353944  .00001496  00000-0  11928-3 0  9999
2 45396  53.0527 228.2558 0001033 103.6450 256.4654 15.06400463157766
1 45396U 20019AN  23024.86509044  .00001348  00000-0  10938-3 0  9996
2 45396  53.0540 223.4895 0000954  98.7448 261.3649 15.06399113157920
1 45396U 20019AN  23025.32952063  .00000823  00000-0  74128-4 0  9990
2 45396  53.0538 221.4058 0001075  95.9421 264.1690 15.06397405157997
1 45396U 20019AN  23025.79394842  .00000391  00000-0  45146-4 0  9994
2 45396  53.0537 219.3200 0000979 100.0536 260.0563 15.06397837158060
1 45396U 20019AN  23025.79394842  .00000391  00000-0  45146-4 0  9994
2 45396  53.0537 219.3200 0000979 100.0536 260.0563 15.06397837158060
1 45396U 20019AN  23026.85549148  .00001519  00000-0  12085-3 0  9991
2 45396  53.0538 214.5549 0001048  87.0271 273.0838 15.06403456158224
1 45396U 20019AN  23026.85549148  .00001519  00000-0  12085-3 0  9991
2 45396  53.0538 214.5549 0001048  87.0271 273.0838 15.06403456158224
1 45396U 20019AN  23027.78435343  .00000558  00000-0  56350-4 0  9991
2 45396  53.0538 210.3846 0001067  86.0216 274.0895 15.06395674158368
1 45396U 20019AN  23027.78435343  .00000558  00000-0  56350-4 0  9991
2 45396  53.0538 210.3846 0001067  86.0216 274.0895 15.06395674158368
1 45396U 20019AN  23028.51416691  .00000307  00000-0  39469-4 0  9992
2 45396  53.0547 207.1051 0001159 106.8804 253.2312 15.06396612158474
1 45396U 20019AN  23028.71320422  .00000731  00000-0  67981-4 0  9991
2 45396  53.0546 206.2127 0001120  96.9441 263.1676 15.06401232158503
1 45396U 20019AN  23029.17763517  .00000137  00000-0  28061-4 0  9994
2 45396  53.0547 204.1283 0001109  90.3714 269.7402 15.06397952158571
1 45396U 20019AN  23029.84110576  .00000517  00000-0  53602-4 0  9990
2 45396  53.0543 201.1511 0001059  87.6106 272.5004 15.06395698158672
1 45396U 20019AN  23030.23919209 -.00000065  00000-0  14529-4 0  9999
2 45396  53.0543 199.3644 0001101  87.5013 272.6102 15.06390962158737
1 45396U 20019AN  23030.57090771  .00002102  00000-0  15991-3 0  9996
2 45396  53.0542 197.8756 0001210  84.2554 275.8573 15.06413097158785
1 45396U 20019AN  23030.57090771  .00002102  00000-0  15991-3 0  9996
2 45396  53.0542 197.8756 0001210  84.2554 275.8573 15.06413097158785
1 45396U 20019AN  23030.83628105  .00003406  00000-0  24725-3 0  9996
2 45396  53.0553 196.6817 0001127  93.9802 266.1316 15.06425357158827
1 45396U 20019AN  23030.83628105  .00003406  00000-0  24725-3 0  9996
2 45396  53.0553 196.6817 0001127  93.9802 266.1316 15.06425357158827
1 45396U 20019AN  23031.16803020  .00001469  00000-0  11748-3 0  9992
2 45396  53.0539 195.1955 0001889  79.5611 280.5591 15.06407560158877
1 45396U 20019AN  23031.56612512 -.00000584  00000-0 -20306-4 0  9990
2 45396  53.0540 193.4079 0001219  85.0421 275.0707 15.06387489158937
1 45396U 20019AN  23031.56612512 -.00000584  00000-0 -20306-4 0  9990
2 45396  53.0540 193.4079 0001219  85.0421 275.0707 15.06387489158937
